PHASE 3B (AO-10)        
1 14129U 83058B   20357.22733345  .00000120  00000-0  00000-0 0  9990
2 14129  25.7382 184.3459 6075015 294.6806  15.0443  2.05870543254270
UOSAT 2 (UO-11)         
1 14781U 84021B   20361.56034334  .00000161  00000-0  25768-4 0  9996
2 14781  97.5894   3.9650 0007047 294.4812  65.5667 14.83230437960304
LUSAT (LO-19)           
1 20442U 90005G   20361.46218289  .00000008  00000-0  19314-4 0  9998
2 20442  98.7184 309.5848 0010971 314.0680  45.9599 14.32971698616057
EYESAT A (AO-27)        
1 22825U 93061C   20361.49676580  .00000009  00000-0  21398-4 0  9991
2 22825  98.9244   8.7997 0008542 171.3734 188.7596 14.30101860421265
ITAMSAT (IO-26)         
1 22826U 93061D   20361.57796664  .00000015  00000-0  23799-4 0  9991
2 22826  98.9186   8.8089 0009294 159.6521 200.5033 14.30439236421510
RADIO ROSTO (RS-15)     
1 23439U 94085A   20361.57990675 -.00000037  00000-0  15882-3 0  9995
2 23439  64.8170 295.5457 0155203   6.3197 353.9641 11.27569863 70846
JAS-2 (FO-29)           
1 24278U 96046B   20361.49481927 -.00000020  00000-0  18125-4 0  9998
2 24278  98.5872  86.2476 0349536 237.5272 119.1631 13.53101552202850
TECHSAT 1B (GO-32)      
1 25397U 98043D   20361.44927037 -.00000011  00000-0  14773-4 0  9997
2 25397  98.7515 301.6698 0000889 166.9323 193.1878 14.23698041166874
ISS (ZARYA)             
1 25544U 98067A   20361.79399878  .00001370  00000-0  32758-4 0  9992
2 25544  51.6452 115.4489 0001278 157.1083   3.0759 15.49229640261870
PCSAT (NO-44)           
1 26931U 01043C   20361.42761261 -.00000013  00000-0  26831-4 0  9999
2 26931  67.0517   6.9752 0007392 273.2647  86.7608 14.30600425  4497
SAUDISAT 1C (SO-50)     
1 27607U 02058C   20361.56292871  .00000076  00000-0  31327-4 0  9992
2 27607  64.5544 147.0003 0029675 100.2005 260.2446 14.75695701969063
CUTE-1 (CO-55)          
1 27844U 03031E   20361.55942283  .00000082  00000-0  56356-4 0  9991
2 27844  98.6815   6.3901 0009262 214.5678 145.4899 14.22278241907408
CUBESAT XI-IV (CO-57)   
1 27848U 03031J   20361.57180279  .00000061  00000-0  47634-4 0  9992
2 27848  98.6876   6.9700 0008959 228.2051 131.8362 14.21859596907244
MOZHAYETS 4 (RS-22)     
1 27939U 03042A   20361.60845001  .00000154  00000-0  36215-4 0  9996
2 27939  98.1153 134.1999 0014246 105.7491 254.5281 14.66926868922184
CUBESAT XI-V            
1 28895U 05043F   20361.35776977  .00000172  00000-0  41843-4 0  9991
2 28895  98.0345 132.6592 0017468  39.6698 320.5778 14.63846097808688
CUTE-1.7+APD II (CO-65) 
1 32785U 08021C   20361.52013422  .00000383  00000-0  46701-4 0  9993
2 32785  97.5921 341.2965 0012126 210.9828 149.0676 14.88597063686444
DELFI-C3 (DO-64)        
1 32789U 08021G   20361.56883688  .00002093  00000-0  13858-3 0  9996
2 32789  97.3979  37.4723 0012374  24.7984 335.3837 15.08324062690763
SEEDS II (CO-66)        
1 32791U 08021J   20361.52218969  .00000689  00000-0  74602-4 0  9993
2 32791  97.5553 347.3550 0013199 176.0761 184.0564 14.91226691687006
YUBILEINY (RS-30)       
1 32953U 08025A   20361.51082151  .00000028  00000-0  12906-3 0  9993
2 32953  82.5020 158.4883 0019134 356.3150   3.7787 12.43099137571496
KKS-1 (KISEKI)          
1 33499U 09002H   20361.56044486  .00000178  00000-0  34014-4 0  9990
2 33499  98.2906 221.4121 0008088 227.7314 132.3209 14.75599261640916
SWISSCUBE               
1 35932U 09051B   20361.51166849  .00000183  00000-0  52340-4 0  9999
2 35932  98.6066 190.0023 0006539 256.8218 103.2249 14.56468405597789
BEESAT-1                
1 35933U 09051C   20361.48462589  .00000161  00000-0  47263-4 0  9990
2 35933  98.6045 191.8337 0004698 272.1790  87.8869 14.56534817597858
ITUPSAT1                
1 35935U 09051E   20361.52364767  .00000140  00000-0  43281-4 0  9999
2 35935  98.6151 192.0443 0007022 271.9433  88.0959 14.55673621597617
XIWANG-1 (HOPE-1)       
1 36122U 09072B   20361.46822018 -.00000043  00000-0 -18981-5 0  9996
2 36122 100.1121 343.4645 0007888 137.8602 222.3125 13.16357932530138
JUGNU                   
1 37839U 11058B   20361.28374618  .00000310  00000-0  23721-4 0  9999
2 37839  19.9595 199.4148 0018899 343.2411 171.8443 14.12698636475942
SRMSAT                  
1 37841U 11058D   20361.42512150  .00000317  00000-0  29200-4 0  9998
2 37841  19.9717 266.8607 0011934 192.3483 323.6441 14.10681537475265
M-CUBED & EXP-1 PRIME   
1 37855U 11061F   20361.50757329  .00002646  00000-0  13542-3 0  9993
2 37855 101.7255 189.2089 0168906 224.7497 133.9987 15.06978401500122
STRAND-1                
1 39090U 13009E   20361.50520749  .00000065  00000-0  37824-4 0  9997
2 39090  98.4374 201.6444 0010247  75.1913 285.0407 14.35160601410232
SOMP                    
1 39134U 13015E   20361.45867806  .00002572  00000-0  12153-3 0  9997
2 39134  64.8644  14.6948 0014846 220.1553 139.8479 15.21783847424880
BEESAT-3                
1 39135U 13015F   20361.49779072  .00001913  00000-0  10078-3 0  9991
2 39135  64.8684  40.9912 0021004 210.7228 149.2670 15.18754523424373
BEESAT-2                
1 39136U 13015G   20361.49028059  .00001739  00000-0  93632-4 0  9998
2 39136  64.8772  46.7111 0030991 264.4069  95.3523 15.18139603424263
ZACUBE-1 (TSHEPISOSAT)  
1 39417U 13066B   20361.47344428  .00000473  00000-0  65208-4 0  9997
2 39417  97.5775 348.9433 0059023   9.7542 350.4803 14.81392609383466
GOMX-1                  
1 39430U 13066Q   20361.56831592  .00000391  00000-0  79984-4 0  9990
2 39430  97.8067 288.6302 0149674 299.7742  58.8637 14.59511087377823
CUBEBUG-2 (LO-74)       
1 39440U 13066AA  20361.46912438  .00000394  00000-0  61118-4 0  9992
2 39440  97.6541 333.6005 0081425  77.0836 283.9453 14.76124595380903
FUNCUBE-1 (AO-73)       
1 39444U 13066AE  20361.49437676  .00000587  00000-0  77777-4 0  9997
2 39444  97.5697 351.2823 0057868   0.9837 359.1481 14.82273693381811
UWE-3                   
1 39446U 13066AG  20361.46737470  .00000437  00000-0  63946-4 0  9998
2 39446  97.6174 340.6895 0070876  44.3088 316.3767 14.78659998380945
SPROUT                  
1 39770U 14029E   20361.55149672  .00001278  00000-0  14491-3 0  9993
2 39770  97.9053 107.1684 0010042  60.2690 299.9523 14.88088326357628
UNISAT-6                
1 40012U 14033C   20361.49565405  .00000276  00000-0  47908-4 0  9995
2 40012  97.6877 206.8496 0059550  99.3816 261.4132 14.74215013350711
DUCHIFAT-1              
1 40021U 14033M   20361.35042303  .00000736  00000-0  79974-4 0  9996
2 40021  97.9581 293.8992 0013447  20.9262 339.2504 14.91117769354486
QB50P1                  
1 40025U 14033R   20361.35361992  .00000534  00000-0  62274-4 0  9999
2 40025  97.9245 285.7007 0013228  33.4084 326.7965 14.89286719353651
NUDT-PHONESAT           
1 40900U 15049B   20361.64394442  .00004790  00000-0  19344-3 0  9994
2 40900  97.4273  10.9980 0013229  35.0598  87.7266 15.25170494292479
ZDPS 2A                 
1 40901U 15049C   20361.62929608  .00002454  00000-0  12073-3 0  9998
2 40901  97.4629   4.8658 0014830  66.7661  54.5766 15.18860166291739
ZDPS 2B                 
1 40902U 15049D   20361.61469369  .00002588  00000-0  12709-3 0  9995
2 40902  97.4644   2.1305 0014847  64.0877  75.3619 15.18871244291709
XW-2A                   
1 40903U 15049E   20361.61051304  .00004124  00000-0  91977-4 0  9995
2 40903  97.2632  50.5030 0010893 287.0760 226.1107 15.44094684296114
KAITUO 1A               
1 40904U 15049F   20361.63118396  .00000724  00000-0  41165-4 0  9999
2 40904  97.4822 359.8412 0016158  78.0010  59.2942 15.15934249291354
2015-049G               
1 40905U 15049G   20361.59907100  .00001084  00000-0  61828-4 0  9992
2 40905  97.4937 356.9374 0017286  76.9650  62.5469 15.14767094291168
XW-2C                   
1 40906U 15049H   20361.62699522  .00001137  00000-0  61818-4 0  9991
2 40906  97.4827   0.2340 0016296  69.2823  25.7527 15.16386266291375
XW-2D                   
1 40907U 15049J   20361.59792731  .00001626  00000-0  86281-4 0  9998
2 40907  97.4816 359.9480 0015690  66.1683  76.4489 15.16662811291395
LILACSAT-2              
1 40908U 15049K   20361.62425297  .00000495  00000-0  30604-4 0  9994
2 40908  97.4981 358.0631 0017499  77.9797  16.1436 15.14227837291073
XW-2F                   
1 40910U 15049M   20361.56731757  .00002109  00000-0  10542-3 0  9993
2 40910  97.4712   2.7711 0015928  56.2922  61.9346 15.18452680291488
XW-2B                   
1 40911U 15049N   20361.59239076  .00001515  00000-0  80809-4 0  9998
2 40911  97.4817   0.6393 0015503  67.6793  79.8050 15.16583835291282
KAITUO 1B               
1 40912U 15049P   20361.59079257  .00002503  00000-0  11602-3 0  9994
2 40912  97.4480   7.0990 0015435  33.0868 115.3673 15.20914243291910
TIANWANG 1C (TW-1C)     
1 40926U 15051B   20361.61348329  .00140276  00000-0  63423-3 0  9992
2 40926  97.0552  55.9151 0003966  78.9657  26.7833 15.83592334297205
TIANWANG 1A (TW-1A)     
1 40928U 15051D   20361.53957257  .00006198  00000-0  13724-3 0  9994
2 40928  97.0937  24.6559 0009200 195.4368 291.3233 15.44092589294991
LAPAN-A2                
1 40931U 15052B   20359.54616533  .00000744  00000-0  14588-4 0  9997
2 40931   6.0000  59.7092 0012340  85.7839 274.4370 14.76657013283401
E-ST@R-II               
1 41459U 16025D   20361.58702293  .00002688  00000-0  13711-3 0  9995
2 41459  98.1201 121.8765 0161294 285.1103  73.2321 15.07154184256376
AAUSAT 4                
1 41460U 16025E   20361.41396576  .00005068  00000-0  24478-3 0  9999
2 41460  98.1197 124.7616 0149635 271.8438  86.5658 15.09788985256595
NUSAT-1 (FRESCO)        
1 41557U 16033B   20361.57252023  .00002945  00000-0  10801-3 0  9996
2 41557  97.3994  90.5735 0014559 124.0363   0.8571 15.28687356255113
BEESAT-4                
1 41619U 16040W   20361.37685213  .00002510  00000-0  10422-3 0  9999
2 41619  97.2966  56.1625 0009887 215.5269 144.5311 15.24706804238637
